{
  "type": "FeatureCollection",
  "features": [
    {
      "type": "Feature",
      "properties": {
        "norad_id": 34003,
        "name": "COSMOS 2251 DEB",
        "group": "cosmos-2251-debris",
        "lat": 40.73678450009174,
        "lon": 106.8147031022079,
        "alt_km": 912.2386450184549,
        "timestamp": "2025-12-03T06:58:43.635313+00:00",
        "meta_object_name": "COSMOS 2251 DEB",
        "meta_object_id": "1993-036GN",
        "meta_epoch": "2025-12-02T07:47:40.877952",
        "meta_mean_motion": 13.84056289,
        "meta_eccentricity": 0.02736389,
        "meta_inclination": 74.0778,
        "meta_ra_of_asc_node": 302.6716,
        "meta_arg_of_pericenter": 57.1499,
        "meta_mean_anomaly": 305.565,
        "meta_ephemeris_type": 0,
        "meta_classification_type": "U",
        "meta_norad_cat_id": 34003,
        "meta_element_set_no": 999,
        "meta_rev_at_epoch": 84281,
        "meta_bstar": 0.0021624818,
        "meta_mean_motion_dot": 3.194e-05,
        "meta_mean_motion_ddot": 0,
        "tle_line1": "1 34003U 93036GN  25336.32477868  .00003194  00000+0  21625-2 0  9999",
        "tle_line2": "2 34003  74.0778 302.6716 0273638  57.1499 305.5650 13.84056289842817"
      },
      "geometry": {
        "type": "Point",
        "coordinates": [
          106.8147031022079,
          40.73678450009174
        ]
      }
    },
    {
      "type": "Feature",
      "properties": {
        "norad_id": 34004,
        "name": "COSMOS 2251 DEB",
        "group": "cosmos-2251-debris",
        "lat": 74.02505200798817,
        "lon": 60.50813472503375,
        "alt_km": 728.2172011879065,
        "timestamp": "2025-12-03T06:58:43.635335+00:00",
        "meta_object_name": "COSMOS 2251 DEB",
        "meta_object_id": "1993-036GP",
        "meta_epoch": "2025-12-02T10:40:50.455488",
        "meta_mean_motion": 14.48838361,
        "meta_eccentricity": 0.00330622,
        "meta_inclination": 74.0352,
        "meta_ra_of_asc_node": 332.4114,
        "meta_arg_of_pericenter": 346.1491,
        "meta_mean_anomaly": 13.8758,
        "meta_ephemeris_type": 0,
        "meta_classification_type": "U",
        "meta_norad_cat_id": 34004,
        "meta_element_set_no": 999,
        "meta_rev_at_epoch": 87881,
        "meta_bstar": 0.0016737435,
        "meta_mean_motion_dot": 6.348e-05,
        "meta_mean_motion_ddot": 0,
        "tle_line1": "1 34004U 93036GP  25336.44502842  .00006348  00000+0  16737-2 0  9996",
        "tle_line2": "2 34004  74.0352 332.4114 0033062 346.1491  13.8758 14.48838361878814"
      },
      "geometry": {
        "type": "Point",
        "coordinates": [
          60.50813472503375,
          74.02505200798817
        ]
      }
    },
    {
      "type": "Feature",
      "properties": {
        "norad_id": 34005,
        "name": "COSMOS 2251 DEB",
        "group": "cosmos-2251-debris",
        "lat": -59.415778882608976,
        "lon": -157.8453478374777,
        "alt_km": 755.8250718410118,
        "timestamp": "2025-12-03T06:58:43.635349+00:00",
        "meta_object_name": "COSMOS 2251 DEB",
        "meta_object_id": "1993-036GQ",
        "meta_epoch": "2025-12-02T19:56:08.173824",
        "meta_mean_motion": 14.40292239,
        "meta_eccentricity": 0.002045,
        "meta_inclination": 74.0451,
        "meta_ra_of_asc_node": 231.9539,
        "meta_arg_of_pericenter": 352.0174,
        "meta_mean_anomaly": 79.8191,
        "meta_ephemeris_type": 0,
        "meta_classification_type": "U",
        "meta_norad_cat_id": 34005,
        "meta_element_set_no": 999,
        "meta_rev_at_epoch": 88236,
        "meta_bstar": 0.00015768,
        "meta_mean_motion_dot": 4.74e-06,
        "meta_mean_motion_ddot": 0,
        "tle_line1": "1 34005U 93036GQ  25336.83065016  .00000474  00000+0  15768-3 0  9995",
        "tle_line2": "2 34005  74.0451 231.9539 0020450 352.0174  79.8191 14.40292239882368"
      },
      "geometry": {
        "type": "Point",
        "coordinates": [
          -157.8453478374777,
          -59.415778882608976
        ]
      }
    },
    {
      "type": "Feature",
      "properties": {
        "norad_id": 34006,
        "name": "COSMOS 2251 DEB",
        "group": "cosmos-2251-debris",
        "lat": 10.140424589536364,
        "lon": -20.634678643677837,
        "alt_km": 582.095494478026,
        "timestamp": "2025-12-03T06:58:43.635359+00:00",
        "meta_object_name": "COSMOS 2251 DEB",
        "meta_object_id": "1993-036GR",
        "meta_epoch": "2025-12-02T19:02:31.983936",
        "meta_mean_motion": 14.93623986,
        "meta_eccentricity": 0.0012293,
        "meta_inclination": 74.054,
        "meta_ra_of_asc_node": 163.2959,
        "meta_arg_of_pericenter": 122.0289,
        "meta_mean_anomaly": 253.9852,
        "meta_ephemeris_type": 0,
        "meta_classification_type": "U",
        "meta_norad_cat_id": 34006,
        "meta_element_set_no": 999,
        "meta_rev_at_epoch": 88520,
        "meta_bstar": 0.0040344,
        "meta_mean_motion_dot": 0.00042902,
        "meta_mean_motion_ddot": 0,
        "tle_line1": "1 34006U 93036GR  25336.79342574  .00042902  00000+0  40344-2 0  9997",
        "tle_line2": "2 34006  74.0540 163.2959 0012293 122.0289 253.9852 14.93623986885209"
      },
      "geometry": {
        "type": "Point",
        "coordinates": [
          -20.634678643677837,
          10.140424589536364
        ]
      }
    },
    {
      "type": "Feature",
      "properties": {
        "norad_id": 34007,
        "name": "COSMOS 2251 DEB",
        "group": "cosmos-2251-debris",
        "lat": 27.232140246357865,
        "lon": 13.566398608149335,
        "alt_km": 689.6761466985145,
        "timestamp": "2025-12-03T06:58:43.635370+00:00",
        "meta_object_name": "COSMOS 2251 DEB",
        "meta_object_id": "1993-036GS",
        "meta_epoch": "2025-12-02T12:49:00.216192",
        "meta_mean_motion": 14.64669257,
        "meta_eccentricity": 0.00448094,
        "meta_inclination": 74.0198,
        "meta_ra_of_asc_node": 6.5414,
        "meta_arg_of_pericenter": 144.6583,
        "meta_mean_anomaly": 215.7571,
        "meta_ephemeris_type": 0,
        "meta_classification_type": "U",
        "meta_norad_cat_id": 34007,
        "meta_element_set_no": 999,
        "meta_rev_at_epoch": 88930,
        "meta_bstar": 0.00085176839,
        "meta_mean_motion_dot": 4.569e-05,
        "meta_mean_motion_ddot": 0,
        "tle_line1": "1 34007U 93036GS  25336.53403028  .00004569  00000+0  85177-3 0  9993",
        "tle_line2": "2 34007  74.0198   6.5414 0044809 144.6583 215.7571 14.64669257889307"
      },
      "geometry": {
        "type": "Point",
        "coordinates": [
          13.566398608149335,
          27.232140246357865
        ]
      }
    },
    {
      "type": "Feature",
      "properties": {
        "norad_id": 34008,
        "name": "COSMOS 2251 DEB",
        "group": "cosmos-2251-debris",
        "lat": 73.75513302993546,
        "lon": 67.05916631063221,
        "alt_km": 777.4413594814432,
        "timestamp": "2025-12-03T06:58:43.635380+00:00",
        "meta_object_name": "COSMOS 2251 DEB",
        "meta_object_id": "1993-036GT",
        "meta_epoch": "2025-12-02T11:01:20.807040",
        "meta_mean_motion": 14.33134536,
        "meta_eccentricity": 0.00239268,
        "meta_inclination": 74.0343,
        "meta_ra_of_asc_node": 349.3076,
        "meta_arg_of_pericenter": 346.5547,
        "meta_mean_anomaly": 131.8983,
        "meta_ephemeris_type": 0,
        "meta_classification_type": "U",
        "meta_norad_cat_id": 34008,
        "meta_element_set_no": 999,
        "meta_rev_at_epoch": 87817,
        "meta_bstar": 0.00016421061,
        "meta_mean_motion_dot": 4.26e-06,
        "meta_mean_motion_ddot": 0,
        "tle_line1": "1 34008U 93036GT  25336.45926860  .00000426  00000+0  16421-3 0  9993",
        "tle_line2": "2 34008  74.0343 349.3076 0023926 346.5547 131.8983 14.33134536878173"
      },
      "geometry": {
        "type": "Point",
        "coordinates": [
          67.05916631063221,
          73.75513302993546
        ]
      }
    },
    {
      "type": "Feature",
      "properties": {
        "norad_id": 34009,
        "name": "COSMOS 2251 DEB",
        "group": "cosmos-2251-debris",
        "lat": 55.97873607950737,
        "lon": 149.11741032508934,
        "alt_km": 764.0891133648893,
        "timestamp": "2025-12-03T06:58:43.635390+00:00",
        "meta_object_name": "COSMOS 2251 DEB",
        "meta_object_id": "1993-036GU",
        "meta_epoch": "2025-12-02T19:31:56.728128",
        "meta_mean_motion": 14.33209574,
        "meta_eccentricity": 0.0026256,
        "meta_inclination": 74.0372,
        "meta_ra_of_asc_node": 355.0766,
        "meta_arg_of_pericenter": 67.9363,
        "meta_mean_anomaly": 112.4454,
        "meta_ephemeris_type": 0,
        "meta_classification_type": "U",
        "meta_norad_cat_id": 34009,
        "meta_element_set_no": 999,
        "meta_rev_at_epoch": 87803,
        "meta_bstar": 0.0001736,
        "meta_mean_motion_dot": 4.53e-06,
        "meta_mean_motion_ddot": 0,
        "tle_line1": "1 34009U 93036GU  25336.81385102  .00000453  00000+0  17360-3 0  9995",
        "tle_line2": "2 34009  74.0372 355.0766 0026256  67.9363 112.4454 14.33209574878033"
      },
      "geometry": {
        "type": "Point",
        "coordinates": [
          149.11741032508934,
          55.97873607950737
        ]
      }
    }
  ]
}